NORAD_CAT_ID,OBJECT_NAME,OBJECT_TYPE,EPOCH,MEAN_MOTION,ECCENTRICITY,INCLINATION,RA_OF_ASC_NODE,ARG_OF_PERICENTER,MEAN_ANOMALY,BSTAR,MEAN_MOTION_DOT,MEAN_MOTION_DDOT,TLE_LINE0,TLE_LINE1,TLE_LINE2,SEMIMAJOR_AXIS,PERIOD,APOGEE,PERIGEE,DECAYED
49445.0,STARLINK-3122,PAYLOAD,2022-07-15 21:04:14,15.08853859,0.0003266,53.2184,82.3596,70.5568,289.5777,4.1768e-05,3.76e-06,0.0,0 STARLINK-3122,1 49445U 21104AP  22196.87794285  .00000376  00000-0  41768-4 0  9990,2 49445  53.2184  82.3596 0003266  70.5568 289.5777 15.08853859 37560,6917.8380000000025,95.437,541.962,537.444,0.0
49445.0,STARLINK-3122,PAYLOAD,2022-07-16 09:47:19,15.08842389,0.000271,53.2181,79.9815,67.5888,292.5391,0.00019483,2.814e-05,0.0,0 STARLINK-3122,1 49445U 21104AP  22197.40786546  .00002814  00000-0  19483-3 0  9998,2 49445  53.2181  79.9815 0002710  67.5888 292.5391 15.08842389 38728,6917.873000000001,95.437,541.613,537.863,0.0
49445.0,STARLINK-3122,PAYLOAD,2022-07-16 20:55:01,15.08843257,0.0002867,53.2186,77.898,73.2905,286.8401,9.576e-05,1.236e-05,0.0,0 STARLINK-3122,1 49445U 21104AP  22197.87154770  .00001236  00000-0  95760-4 0  9997,2 49445  53.2186  77.8980 0002867  73.2905 286.8401 15.08843257 37711,6917.87,95.437,541.719,537.752,0.0
49445.0,STARLINK-3122,PAYLOAD,2022-07-17 01:41:10,15.08854944,0.0002978,53.2184,77.0063,70.3642,289.7671,0.00015011,2.102e-05,0.0,0 STARLINK-3122,1 49445U 21104AP  22198.07025920  .00002102  00000-0  15011-3 0  9997,2 49445  53.2184  77.0063 0002978  70.3642 289.7671 15.08854944 38821,6917.835,95.437,541.76,537.64,0.0
49445.0,STARLINK-3122,PAYLOAD,2022-07-18 01:31:59,15.08830194,0.0002708,53.2191,72.5449,73.2066,286.9223,-5.1956e-05,-1.115e-05,0.0,0 STARLINK-3122,1 49445U 21104AP  22199.06387775 -.00001115  00000-0 -51956-4 0  9990,2 49445  53.2191  72.5449 0002708  73.2066 286.9223 15.08830194 38979,6917.91,95.438,541.649,537.9019999999998,0.0
49445.0,STARLINK-3122,PAYLOAD,2022-07-18 20:36:36,15.08831313,0.0002581,53.2188,68.9777,75.4878,284.6401,-4.0498e-05,-9.33e-06,0.0,0 STARLINK-3122,1 49445U 21104AP  22199.85875969 -.00000933  00000-0 -40498-4 0  9990,2 49445  53.2188  68.9777 0002581  75.4878 284.6401 15.08831313 38014,6917.906999999997,95.438,541.557,537.986,0.0
49445.0,STARLINK-3122,PAYLOAD,2022-07-19 07:44:18,15.088397,0.0002548,53.2189,66.8969,72.2664,287.8606,-2.2337e-07,-2.92e-06,0.0,0 STARLINK-3122,1 49445U 21104AP  22200.32243486 -.00000292  00000-0 -22337-6 0  9990,2 49445  53.2189  66.8969 0002548  72.2664 287.8606 15.08839700 39163,6917.880999999999,95.438,541.509,537.984,0.0
49445.0,STARLINK-3122,PAYLOAD,2022-07-19 22:02:46,15.08843462,0.0002427,53.2187,64.2204,71.3585,288.767,0.00016794,2.386e-05,0.0,0 STARLINK-3122,1 49445U 21104AP  22200.91858849  .00002386  00000-0  16794-3 0  9991,2 49445  53.2187  64.2204 0002427  71.3585 288.7670 15.08843462 38174,6917.87,95.437,541.414,538.056,0.0
49445.0,STARLINK-3122,PAYLOAD,2022-07-20 07:35:05,15.08842529,0.0002435999999999,53.2185,62.4372,70.0218,290.1037,0.0001335,1.837e-05,0.0,0 STARLINK-3122,1 49445U 21104AP  22201.31603015  .00001837  00000-0  13350-3 0  9994,2 49445  53.2185  62.4372 0002436  70.0218 290.1037 15.08842529 38231,6917.873000000001,95.437,541.423,538.052,0.0
49445.0,STARLINK-3122,PAYLOAD,2022-07-20 20:18:10,15.08840776,0.0002315,53.2187,60.058,71.016,289.1083,8.5266e-05,1.069e-05,0.0,0 STARLINK-3122,1 49445U 21104AP  22201.84595294  .00001069  00000-0  85266-4 0  9994,2 49445  53.2187  60.0580 0002315  71.0160 289.1083 15.08840776 39390,6917.878000000002,95.438,541.345,538.1419999999998,0.0
49445.0,STARLINK-3122,PAYLOAD,2022-07-21 07:25:53,15.08826165,0.0002273,53.2181,57.9762,68.5187,291.6048,-4.8345e-05,-1.057e-05,0.0,0 STARLINK-3122,1 49445U 21104AP  22202.30964828 -.00001057  00000-0 -48345-4 0  9995,2 49445  53.2181  57.9762 0002273  68.5187 291.6048 15.08826165 39467,6917.9230000000025,95.438,541.36,538.215,0.0
49445.0,STARLINK-3122,PAYLOAD,2022-07-21 18:33:36,15.08825463,0.0002355,53.2177,55.8947,69.5815,290.543,-0.00012773,-2.32e-05,0.0,0 STARLINK-3122,1 49445U 21104AP  22202.77333462 -.00002320  00000-0 -12773-3 0  9999,2 49445  53.2177  55.8947 0002355  69.5815 290.5430 15.08825463 38455,6917.925,95.438,541.419,538.161,0.0
49445.0,STARLINK-3122,PAYLOAD,2022-07-21 23:19:45,15.08829308,0.0002316999999999,53.2191,55.0022,70.8493,289.275,-0.00015002,-2.675e-05,0.0,0 STARLINK-3122,1 49445U 21104AP  22202.97205435 -.00002675  00000-0 -15002-3 0  9990,2 49445  53.2191  55.0022 0002317  70.8493 289.2750 15.08829308 38487,6917.913000000001,95.438,541.381,538.175,0.0
49445.0,STARLINK-3122,PAYLOAD,2022-07-22 07:16:40,15.08830583,0.0002198999999999,53.2187,53.51600000000001,70.4353,289.6876,-2.6737e-05,-7.14e-06,0.0,0 STARLINK-3122,1 49445U 21104AP  22203.30325210 -.00000714  00000-0 -26737-4 0  9992,2 49445  53.2187  53.5160 0002199  70.4353 289.6876 15.08830583 39613,6917.909000000002,95.438,541.295,538.253,0.0
49445.0,STARLINK-3122,PAYLOAD,2022-07-22 23:10:31,15.08837575,0.0002136,53.2187,50.5422,70.1404,289.9818,7.1437e-05,8.49e-06,0.0,0 STARLINK-3122,1 49445U 21104AP  22203.96564702  .00000849  00000-0  71437-4 0  9999,2 49445  53.2187  50.5422 0002136  70.1404 289.9818 15.08837575 39714,6917.888000000001,95.438,541.23,538.275,0.0
49445.0,STARLINK-3122,PAYLOAD,2022-07-23 13:29:00,15.08835602,0.0002029,53.2187,47.8672,69.2277,290.8932,0.00021612,3.153e-05,0.0,0 STARLINK-3122,1 49445U 21104AP  22204.56180615  .00003153  00000-0  21612-3 0  9993,2 49445  53.2187  47.8672 0002029  69.2277 290.8932 15.08835602 38725,6917.894,95.438,541.1619999999998,538.355,0.0
49445.0,STARLINK-3122,PAYLOAD,2022-07-23 19:50:32,15.08833262,0.0002003,53.2189,46.6764,70.8058,289.3151,0.00022728,3.33e-05,0.0,0 STARLINK-3122,1 49445U 21104AP  22204.82677036  .00003330  00000-0  22728-3 0  9996,2 49445  53.2189  46.6764 0002003  70.8058 289.3151 15.08833262 38763,6917.901,95.438,541.1519999999998,538.38,0.0
49445.0,STARLINK-3122,PAYLOAD,2022-07-23 23:01:19,15.08834404,0.0001909,53.2192,46.0814,71.0739,289.046,0.00014773,2.063e-05,0.0,0 STARLINK-3122,1 49445U 21104AP  22204.95925207  .00002063  00000-0  14773-3 0  9999,2 49445  53.2192  46.0814 0001909  71.0739 289.0460 15.08834404 39861,6917.897,95.438,541.0830000000002,538.442,0.0
49445.0,STARLINK-3122,PAYLOAD,2022-07-24 06:58:14,15.08838388,0.0001921999999999,53.2194,44.5947,71.3212,288.7989,0.0001661,2.356e-05,0.0,0 STARLINK-3122,1 49445U 21104AP  22205.29045035  .00002356  00000-0  16610-3 0  9996,2 49445  53.2194  44.5947 0001922  71.3212 288.7989 15.08838388 38830,6917.885,95.438,541.08,538.4209999999998,0.0
49445.0,STARLINK-3122,PAYLOAD,2022-07-24 19:41:19,15.08849312,0.0001886999999999,53.2199,42.2158,70.8176,289.302,0.00014892,2.083e-05,0.0,0 STARLINK-3122,1 49445U 21104AP  22205.82036255  .00002083  00000-0  14892-3 0  9996,2 49445  53.2199  42.2158 0001887  70.8176 289.3020 15.08849312 38918,6917.852,95.437,541.0219999999998,538.4119999999998,0.0
49445.0,STARLINK-3122,PAYLOAD,2022-07-24 22:52:06,15.08841278,0.0001975,53.2197,41.621,73.8539,286.267,2.4372e-05,1e-06,0.0,0 STARLINK-3122,1 49445U 21104AP  22205.95285007  .00000100  00000-0  24372-4 0  9994,2 49445  53.2197  41.6210 0001975  73.8539 286.2670 15.08841278 40016,6917.876,95.437,541.1080000000002,538.375,0.0
49445.0,STARLINK-3122,PAYLOAD,2022-07-25 13:10:34,15.08837632,0.0001971,53.2189,38.9459,68.9426,291.1777,5.5453e-05,5.94e-06,0.0,0 STARLINK-3122,1 49445U 21104AP  22206.54901099  .00000594  00000-0  55453-4 0  9997,2 49445  53.2189  38.9459 0001971  68.9426 291.1777 15.08837632 39028,6917.888000000001,95.438,541.116,538.389,0.0
49445.0,STARLINK-3122,PAYLOAD,2022-07-25 19:32:06,15.08840477,0.0001955999999999,53.2181,37.7556,72.6115,287.5091,8.4873e-05,1.063e-05,0.0,0 STARLINK-3122,1 49445U 21104AP  22206.81396806  .00001063  00000-0  84873-4 0  9991,2 49445  53.2181  37.7556 0001956  72.6115 287.5091 15.08840477 39068,6917.879,95.438,541.097,538.391,0.0
49445.0,STARLINK-3122,PAYLOAD,2022-07-26 13:01:21,15.08836787,0.0001892,53.2177,34.4859,72.1132,288.0066,-3.4205e-05,-8.32e-06,0.0,0 STARLINK-3122,1 49445U 21104AP  22207.54261361 -.00000832  00000-0 -34205-4 0  9998,2 49445  53.2177  34.4859 0001892  72.1132 288.0066 15.08836787 40256,6917.89,95.438,541.064,538.446,0.0
49445.0,STARLINK-3122,PAYLOAD,2022-07-26 19:22:54,15.08835328,0.0001849,53.2176,33.2965,70.6583,289.4609,-7.1387e-05,-1.424e-05,0.0,0 STARLINK-3122,1 49445U 21104AP  22207.80757596 -.00001424  00000-0 -71387-4 0  9997,2 49445  53.2176  33.2965 0001849  70.6583 289.4609 15.08835328 39217,6917.895,95.438,541.039,538.481,0.0
49445.0,STARLINK-3122,PAYLOAD,2022-07-27 12:52:08,15.08838159,0.0001789,53.2171,30.0246,69.1284,290.9899,4.6616e-05,4.54e-06,0.0,0 STARLINK-3122,1 49445U 21104AP  22208.53621255  .00000454  00000-0  46616-4 0  9997,2 49445  53.2171  30.0246 0001789  69.1284 290.9899 15.08838159 39328,6917.886,95.438,540.989,538.513,0.0
49445.0,STARLINK-3122,PAYLOAD,2022-07-27 19:13:41,15.08839839,0.0001786999999999,53.2173,28.8353,69.4039,290.7145,5.743e-05,6.26e-06,0.0,0 STARLINK-3122,1 49445U 21104AP  22208.80117143  .00000626  00000-0  57430-4 0  9990,2 49445  53.2173  28.8353 0001787  69.4039 290.7145 15.08839839 40446,6917.880999999999,95.438,540.982,538.51,0.0
49445.0,STARLINK-3122,PAYLOAD,2022-07-28 04:46:00,15.08820313,0.0001914,53.2173,27.0508,72.6639,287.4562,0.00040637,6.182e-05,0.0,0 STARLINK-3122,1 49445U 21104AP  22209.19861707  .00006182  00000-0  40637-3 0  9998,2 49445  53.2173  27.0508 0001914  72.6639 287.4562 15.08820313 40503,6917.941,95.439,541.13,538.481,0.0
49445.0,STARLINK-3122,PAYLOAD,2022-07-28 11:07:32,15.08841419,0.0001751,53.2174,25.8613,68.7799,291.3381,0.00014715,2.055e-05,0.0,0 STARLINK-3122,1 49445U 21104AP  22209.46356781  .00002055  00000-0  14715-3 0  9992,2 49445  53.2174  25.8613 0001751  68.7799 291.3381 15.08841419 39465,6917.876,95.437,540.952,538.53,0.0
